{"type": "FeatureCollection", "features": [ {"type": "Feature", "properties": {"norad_id": 30447, "name": "FENGYUN 1C DEB", "group": "fengyun-1c-debris", "lat": 41.55494731674703, "lon": 45.169446429619605, "alt_km": 728.371964681186, "timestamp": "2025-12-20T22:39:10.902786+00:00", "meta": {"OBJECT_NAME": "FENGYUN 1C DEB", "OBJECT_ID": "1999-025AFJ", "EPOCH": "2025-12-20T04:27:50.635008", "MEAN_MOTION": 14.56737607, "ECCENTRICITY": 0.00601182, "INCLINATION": 98.9714, "RA_OF_ASC_NODE": 216.3043, "ARG_OF_PERICENTER": 8.559, "MEAN_ANOMALY": 116.4551, "EPHEMERIS_TYPE": 0, "CLASSIFICATION_TYPE": "U", "NORAD_CAT_ID": 30447, "ELEMENT_SET_NO": 999, "REV_AT_EPOCH": 98204, "BSTAR": 0.0016031765, "MEAN_MOTION_DOT": 7.296e-05, "MEAN_MOTION_DDOT": 0}, "tle": {"line1": "1 30447U 99025AFJ 25354.18600272  .00007296  00000+0  16032-2 0  9995", "line2": "2 30447  98.9714 216.3043 0060118   8.5590 116.4551 14.56737607982042"}}, "geometry": {"type": "Point", "coordinates": [45.169446429619605, 41.55494731674703]}}, {"type": "Feature", "properties": {"norad_id": 30448, "name": "FENGYUN 1C DEB", "group": "fengyun-1c-debris", "lat": -55.405314466677176, "lon": 99.75518052885866, "alt_km": 772.4329097387435, "timestamp": "2025-12-20T22:39:10.902796+00:00", "meta": {"OBJECT_NAME": "FENGYUN 1C DEB", "OBJECT_ID": "1999-025AFK", "EPOCH": "2025-12-20T06:29:01.933728", "MEAN_MOTION": 14.3520293, "ECCENTRICITY": 0.0016887, "INCLINATION": 98.8312, "RA_OF_ASC_NODE": 86.0394, "ARG_OF_PERICENTER": 347.8826, "MEAN_ANOMALY": 76.9753, "EPHEMERIS_TYPE": 0, "CLASSIFICATION_TYPE": "U", "NORAD_CAT_ID": 30448, "ELEMENT_SET_NO": 999, "REV_AT_EPOCH": 97446, "BSTAR": 0.0012542, "MEAN_MOTION_DOT": 3.547e-05, "MEAN_MOTION_DDOT": 0}, "tle": {"line1": "1 30448U 99025AFK 25354.27016127  .00003547  00000+0  12542-2 0  9993", "line2": "2 30448  98.8312  86.0394 0016887 347.8826  76.9753 14.35202930974466"}}, "geometry": {"type": "Point", "coordinates": [99.75518052885866, -55.405314466677176]}}, {"type": "Feature", "properties": {"norad_id": 30450, "name": "FENGYUN 1C DEB", "group": "fengyun-1c-debris", "lat": 47.290789071388005, "lon": -162.3488899455547, "alt_km": 596.308517157222, "timestamp": "2025-12-20T22:39:10.902805+00:00", "meta": {"OBJECT_NAME": "FENGYUN 1C DEB", "OBJECT_ID": "1999-025AFM", "EPOCH": "2025-12-20T14:23:54.085056", "MEAN_MOTION": 14.61830984, "ECCENTRICITY": 0.01895028, "INCLINATION": 98.0795, "RA_OF_ASC_NODE": 8.4624, "ARG_OF_PERICENTER": 183.5327, "MEAN_ANOMALY": 301.1726, "EPHEMERIS_TYPE": 0, "CLASSIFICATION_TYPE": "U", "NORAD_CAT_ID": 30450, "ELEMENT_SET_NO": 999, "REV_AT_EPOCH": 99657, "BSTAR": 0.00033670628, "MEAN_MOTION_DOT": 2.118e-05, "MEAN_MOTION_DDOT": 0}, "tle": {"line1": "1 30450U 99025AFM 25354.59993154  .00002118  00000+0  33671-3 0  9995", "line2": "2 30450  98.0795   8.4624 0189502 183.5327 301.1726 14.61830984996570"}}, "geometry": {"type": "Point", "coordinates": [-162.3488899455547, 47.290789071388005]}}, {"type": "Feature", "properties": {"norad_id": 30452, "name": "FENGYUN 1C DEB", "group": "fengyun-1c-debris", "lat": 41.402272295973084, "lon": 126.38604819920546, "alt_km": 708.9228895026563, "timestamp": "2025-12-20T22:39:10.902815+00:00", "meta": {"OBJECT_NAME": "FENGYUN 1C DEB", "OBJECT_ID": "1999-025AFP", "EPOCH": "2025-12-19T08:52:52.391712", "MEAN_MOTION": 14.64805367, "ECCENTRICITY": 0.0049499, "INCLINATION": 99.3216, "RA_OF_ASC_NODE": 132.9317, "ARG_OF_PERICENTER": 232.8822, "MEAN_ANOMALY": 154.6222, "EPHEMERIS_TYPE": 0, "CLASSIFICATION_TYPE": "U", "NORAD_CAT_ID": 30452, "ELEMENT_SET_NO": 999, "REV_AT_EPOCH": 98204, "BSTAR": 0.0027554, "MEAN_MOTION_DOT": 0.00014935, "MEAN_MOTION_DDOT": 0}, "tle": {"line1": "1 30452U 99025AFP 25353.37005083  .00014935  00000+0  27554-2 0  9999", "line2": "2 30452  99.3216 132.9317 0049499 232.8822 154.6222 14.64805367982043"}}, "geometry": {"type": "Point", "coordinates": [126.38604819920546, 41.402272295973084]}}, {"type": "Feature", "properties": {"norad_id": 30453, "name": "FENGYUN 1C DEB", "group": "fengyun-1c-debris", "lat": 7.06225587088734, "lon": 65.59223522229279, "alt_km": 891.4402655104786, "timestamp": "2025-12-20T22:39:10.902824+00:00", "meta": {"OBJECT_NAME": "FENGYUN 1C DEB", "OBJECT_ID": "1999-025AFQ", "EPOCH": "2025-12-20T10:52:53.164704", "MEAN_MOTION": 14.24808116, "ECCENTRICITY": 0.0116075, "INCLINATION": 98.8131, "RA_OF_ASC_NODE": 66.2012, "ARG_OF_PERICENTER": 204.123, "MEAN_ANOMALY": 168.3601, "EPHEMERIS_TYPE": 0, "CLASSIFICATION_TYPE": "U", "NORAD_CAT_ID": 30453, "ELEMENT_SET_NO": 999, "REV_AT_EPOCH": 97344, "BSTAR": 0.0010603053, "MEAN_MOTION_DOT": 2.608e-05, "MEAN_MOTION_DDOT": 0}, "tle": {"line1": "1 30453U 99025AFQ 25354.45339311  .00002608  00000+0  10603-2 0  9995", "line2": "2 30453  98.8131  66.2012 0116075 204.1230 168.3601 14.24808116973443"}}, "geometry": {"type": "Point", "coordinates": [65.59223522229279, 7.06225587088734]}}, {"type": "Feature", "properties": {"norad_id": 30454, "name": "FENGYUN 1C DEB", "group": "fengyun-1c-debris", "lat": 81.7558330519273, "lon": -116.30326151969733, "alt_km": 814.9327107855324, "timestamp": "2025-12-20T22:39:10.902833+00:00", "meta": {"OBJECT_NAME": "FENGYUN 1C DEB", "OBJECT_ID": "1999-025AFR", "EPOCH": "2025-12-20T09:22:42.284352", "MEAN_MOTION": 14.15437415, "ECCENTRICITY": 0.01712411, "INCLINATION": 98.1338, "RA_OF_ASC_NODE": 323.963, "ARG_OF_PERICENTER": 172.6953, "MEAN_ANOMALY": 341.1277, "EPHEMERIS_TYPE": 0, "CLASSIFICATION_TYPE": "U", "NORAD_CAT_ID": 30454, "ELEMENT_SET_NO": 999, "REV_AT_EPOCH": 96068, "BSTAR": 0.0012303917, "MEAN_MOTION_DOT": 2.73e-05, "MEAN_MOTION_DDOT": 0}, "tle": {"line1": "1 30454U 99025AFR 25354.39076718  .00002730  00000+0  12304-2 0  9994", "line2": "2 30454  98.1338 323.9630 0171241 172.6953 341.1277 14.15437415960684"}}, "geometry": {"type": "Point", "coordinates": [-116.30326151969733, 81.7558330519273]}}, {"type": "Feature", "properties": {"norad_id": 30462, "name": "FENGYUN 1C DEB", "group": "fengyun-1c-debris", "lat": -74.16473864496747, "lon": 16.153533977242414, "alt_km": 822.4351465437749, "timestamp": "2025-12-20T22:39:10.902842+00:00", "meta": {"OBJECT_NAME": "FENGYUN 1C DEB", "OBJECT_ID": "1999-025AFZ", "EPOCH": "2025-12-20T05:59:53.100960", "MEAN_MOTION": 14.06271223, "ECCENTRICITY": 0.0138943, "INCLINATION": 98.8172, "RA_OF_ASC_NODE": 342.3006, "ARG_OF_PERICENTER": 228.9789, "MEAN_ANOMALY": 141.6798, "EPHEMERIS_TYPE": 0, "CLASSIFICATION_TYPE": "U", "NORAD_CAT_ID": 30462, "ELEMENT_SET_NO": 999, "REV_AT_EPOCH": 96899, "BSTAR": 0.00022632, "MEAN_MOTION_DOT": 3.63e-06, "MEAN_MOTION_DDOT": 0}, "tle": {"line1": "1 30462U 99025AFZ 25354.24992015  .00000363  00000+0  22632-3 0  9990", "line2": "2 30462  98.8172 342.3006 0138943 228.9789 141.6798 14.06271223968998"}}, "geometry": {"type": "Point", "coordinates": [16.153533977242414, -74.16473864496747]}}, {"type": "Feature", "properties": {"norad_id": 30464, "name": "FENGYUN 1C DEB", "group": "fengyun-1c-debris", "lat": 81.13926139621643, "lon": -48.70157730790676, "alt_km": 914.7805266800542, "timestamp": "2025-12-20T22:39:10.902851+00:00", "meta": {"OBJECT_NAME": "FENGYUN 1C DEB", "OBJECT_ID": "1999-025AGB", "EPOCH": "2025-12-20T10:22:33.604896", "MEAN_MOTION": 14.1024836, "ECCENTRICITY": 0.01084696, "INCLINATION": 98.836, "RA_OF_ASC_NODE": 44.6033, "ARG_OF_PERICENTER": 236.6455, "MEAN_ANOMALY": 139.06, "EPHEMERIS_TYPE": 0, "CLASSIFICATION_TYPE": "U", "NORAD_CAT_ID": 30464, "ELEMENT_SET_NO": 999, "REV_AT_EPOCH": 97172, "BSTAR": 0.0001170148, "MEAN_MOTION_DOT": 1.75e-06, "MEAN_MOTION_DDOT": 0}, "tle": {"line1": "1 30464U 99025AGB 25354.43233339  .00000175  00000+0  11701-3 0  9996", "line2": "2 30464  98.8360  44.6033 0108469 236.6455 139.0600 14.10248360971726"}}, "geometry": {"type": "Point", "coordinates": [-48.70157730790676, 81.13926139621643]}}, {"type": "Feature", "properties": {"norad_id": 30465, "name": "FENGYUN 1C DEB", "group": "fengyun-1c-debris", "lat": -79.83435462807768, "lon": 143.4232766534453, "alt_km": 785.904673583871, "timestamp": "2025-12-20T22:39:10.902860+00:00", "meta": {"OBJECT_NAME": "FENGYUN 1C DEB", "OBJECT_ID": "1999-025AGC", "EPOCH": "2025-12-20T04:54:18.698112", "MEAN_MOTION": 14.33943487, "ECCENTRICITY": 0.00164413, "INCLINATION": 98.8295, "RA_OF_ASC_NODE": 82.5732, "ARG_OF_PERICENTER": 7.4301, "MEAN_ANOMALY": 52.5739, "EPHEMERIS_TYPE": 0, "CLASSIFICATION_TYPE": "U", "NORAD_CAT_ID": 30465, "ELEMENT_SET_NO": 999, "REV_AT_EPOCH": 97465, "BSTAR": 0.0012218314, "MEAN_MOTION_DOT": 3.367e-05, "MEAN_MOTION_DDOT": 0}, "tle": {"line1": "1 30465U 99025AGC 25354.20438308  .00003367  00000+0  12218-2 0  9994", "line2": "2 30465  98.8295  82.5732 0016441   7.4301  52.5739 14.33943487974657"}}, "geometry": {"type": "Point", "coordinates": [143.4232766534453, -79.83435462807768]}}, {"type": "Feature", "properties": {"norad_id": 30466, "name": "FENGYUN 1C DEB", "group": "fengyun-1c-debris", "lat": -59.40624093044228, "lon": -160.1025113284254, "alt_km": 864.7980257772242, "timestamp": "2025-12-20T22:39:10.902869+00:00", "meta": {"OBJECT_NAME": "FENGYUN 1C DEB", "OBJECT_ID": "1999-025AGD", "EPOCH": "2025-12-20T13:49:26.451840", "MEAN_MOTION": 14.22569016, "ECCENTRICITY": 0.01161175, "INCLINATION": 98.6542, "RA_OF_ASC_NODE": 34.4633, "ARG_OF_PERICENTER": 1.5288, "MEAN_ANOMALY": 157.1917, "EPHEMERIS_TYPE": 0, "CLASSIFICATION_TYPE": "U", "NORAD_CAT_ID": 30466, "ELEMENT_SET_NO": 999, "REV_AT_EPOCH": 97462, "BSTAR": 0.00077470804, "MEAN_MOTION_DOT": 1.811e-05, "MEAN_MOTION_DDOT": 0}, "tle": {"line1": "1 30466U 99025AGD 25354.57600060  .00001811  00000+0  77471-3 0  9996", "line2": "2 30466  98.6542  34.4633 0116117   1.5288 157.1917 14.22569016974624"}}, "geometry": {"type": "Point", "coordinates": [-160.1025113284254, -59.40624093044228]}}]}